{
    "links": {
        "self": "http://www.neowsapp.com/rest/v1/neo/3843776?api_key=iIulBulltgU6a56xZRHN4H3l9WmuAYTsLGpBGhQ2"
    },
    "id": "3843776",
    "neo_reference_id": "3843776",
    "name": "(2019 RZ)",
    "designation": "2019 RZ",
    "nasa_jpl_url": "http://ssd.jpl.nasa.gov/sbdb.cgi?sstr=3843776",
    "absolute_magnitude_h": 25.5,
    "estimated_diameter": {
        "kilometers": {
            "estimated_diameter_min": 0.0211132445,
            "estimated_diameter_max": 0.0472106499
        },
        "meters": {
            "estimated_diameter_min": 21.113244479,
            "estimated_diameter_max": 47.2106498806
        },
        "miles": {
            "estimated_diameter_min": 0.0131191578,
            "estimated_diameter_max": 0.0293353287
        },
        "feet": {
            "estimated_diameter_min": 69.2691770164,
            "estimated_diameter_max": 154.8905885541
        }
    },
    "is_potentially_hazardous_asteroid": false,
    "close_approach_data": [
        {
            "close_approach_date": "2019-04-01",
            "close_approach_date_full": "2019-Apr-01 10:43",
            "epoch_date_close_approach": 1554115380000,
            "relative_velocity": {
                "kilometers_per_second": "15.2558208569",
                "kilometers_per_hour": "54920.9550846611",
                "miles_per_hour": "34125.7456746884"
            },
            "miss_distance": {
                "astronomical": "0.4587217803",
                "lunar": "178.4427725367",
                "kilometers": "68623801.255487961",
                "miles": "42640852.8175414218"
            },
            "orbiting_body": "Earth"
        },
        {
            "close_approach_date": "2019-09-04",
            "close_approach_date_full": "2019-Sep-04 06:42",
            "epoch_date_close_approach": 1567579320000,
            "relative_velocity": {
                "kilometers_per_second": "15.9531778913",
                "kilometers_per_hour": "57431.4404086321",
                "miles_per_hour": "35685.6636250192"
            },
            "miss_distance": {
                "astronomical": "0.0318565217",
                "lunar": "12.3921869413",
                "kilometers": "4765667.791928779",
                "miles": "2961248.6509799902"
            },
            "orbiting_body": "Earth"
        },
        {
            "close_approach_date": "2103-03-10",
            "close_approach_date_full": "2103-Mar-10 20:26",
            "epoch_date_close_approach": 4203001560000,
            "relative_velocity": {
                "kilometers_per_second": "15.2176835331",
                "kilometers_per_hour": "54783.6607190293",
                "miles_per_hour": "34040.4362951102"
            },
            "miss_distance": {
                "astronomical": "0.4679032621",
                "lunar": "182.0143689569",
                "kilometers": "69997331.376211727",
                "miles": "43494324.8585347526"
            },
            "orbiting_body": "Earth"
        },
        {
            "close_approach_date": "2200-03-28",
            "close_approach_date_full": "2200-Mar-28 20:07",
            "epoch_date_close_approach": 7265621220000,
            "relative_velocity": {
                "kilometers_per_second": "15.0806393792",
                "kilometers_per_hour": "54290.3017652219",
                "miles_per_hour": "33733.8822273958"
            },
            "miss_distance": {
                "astronomical": "0.4408384059",
                "lunar": "171.4861398951",
                "kilometers": "65948486.536835433",
                "miles": "40978489.3361896554"
            },
            "orbiting_body": "Earth"
        },
        {
            "close_approach_date": "2200-09-12",
            "close_approach_date_full": "2200-Sep-12 09:26",
            "epoch_date_close_approach": 7280097960000,
            "relative_velocity": {
                "kilometers_per_second": "17.3513470011",
                "kilometers_per_hour": "62464.84920378",
                "miles_per_hour": "38813.2281066487"
            },
            "miss_distance": {
                "astronomical": "0.1382939813",
                "lunar": "53.7963587257",
                "kilometers": "20688485.036299831",
                "miles": "12855228.4966904278"
            },
            "orbiting_body": "Earth"
        }
    ],
    "orbital_data": {
        "orbit_id": "2",
        "orbit_determination_date": "2019-09-07 05:54:25",
        "first_observation_date": "2019-09-04",
        "last_observation_date": "2019-09-07",
        "data_arc_in_days": 3,
        "observations_used": 43,
        "orbit_uncertainty": "8",
        "minimum_orbit_intersection": ".0255874",
        "jupiter_tisserand_invariant": "4.948",
        "epoch_osculation": "2458731.5",
        "eccentricity": ".208229640337444",
        "semi_major_axis": "1.267029956783635",
        "inclination": "29.35060964892849",
        "ascending_node_longitude": "342.5405812667017",
        "orbital_period": "520.9292596102041",
        "perihelion_distance": "1.003196764585811",
        "perihelion_argument": "325.4949882774765",
        "aphelion_distance": "1.530863148981458",
        "perihelion_time": "2458698.412304314313",
        "mean_anomaly": "22.86600383276685",
        "mean_motion": ".6910727192966226",
        "equinox": "J2000",
        "orbit_class": {
            "orbit_class_type": "APO",
            "orbit_class_description": "Near-Earth asteroid orbits which cross the Earth’s orbit similar to that of 1862 Apollo",
            "orbit_class_range": "a (semi-major axis) > 1.0 AU; q (perihelion) < 1.017 AU"
        }
    },
    "is_sentry_object": false
}